{"type": "FeatureCollection", "features": [ {"type": "Feature", "properties": {"norad_id": 66465, "name": "STARLINK-35448", "group": "last-30-days", "lat": 11.077077747647863, "lon": -106.87469002977558, "alt_km": 430.5633474893948, "timestamp": "2025-12-10T07:43:53.548287+00:00", "meta": {"OBJECT_NAME": "STARLINK-35448", "OBJECT_ID": "2025-262K", "EPOCH": "2025-12-09T20:00:01.999008", "MEAN_MOTION": 15.4706231, "ECCENTRICITY": 0.0001612, "INCLINATION": 43.0005, "RA_OF_ASC_NODE": 88.0927, "ARG_OF_PERICENTER": 273.5218, "MEAN_ANOMALY": 46.4593, "EPHEMERIS_TYPE": 0, "CLASSIFICATION_TYPE": "U", "NORAD_CAT_ID": 66465, "ELEMENT_SET_NO": 999, "REV_AT_EPOCH": 517, "BSTAR": -0.044791, "MEAN_MOTION_DOT": -0.02064144, "MEAN_MOTION_DDOT": 0}, "tle": {"line1": "1 66465U 25262K   25343.83335647 -.02064144  00000+0 -44791-1 0  9998", "line2": "2 66465  43.0005  88.0927 0001612 273.5218  46.4593 15.47062310  5176"}}, "geometry": {"type": "Point", "coordinates": [-106.87469002977558, 11.077077747647863]}}, {"type": "Feature", "properties": {"norad_id": 66466, "name": "STARLINK-35388", "group": "last-30-days", "lat": 3.517221597514879, "lon": -98.5590386999207, "alt_km": 419.1696270998118, "timestamp": "2025-12-10T07:43:53.548310+00:00", "meta": {"OBJECT_NAME": "STARLINK-35388", "OBJECT_ID": "2025-262L", "EPOCH": "2025-12-09T17:03:21.919104", "MEAN_MOTION": 15.4952462, "ECCENTRICITY": 0.0002771, "INCLINATION": 43.001, "RA_OF_ASC_NODE": 88.7937, "ARG_OF_PERICENTER": 285.4527, "MEAN_ANOMALY": 74.6026, "EPHEMERIS_TYPE": 0, "CLASSIFICATION_TYPE": "U", "NORAD_CAT_ID": 66466, "ELEMENT_SET_NO": 999, "REV_AT_EPOCH": 509, "BSTAR": -0.0046698, "MEAN_MOTION_DOT": -0.0025583, "MEAN_MOTION_DDOT": 0}, "tle": {"line1": "1 66466U 25262L   25343.71067036 -.00255830  00000+0 -46698-2 0  9991", "line2": "2 66466  43.0010  88.7937 0002771 285.4527  74.6026 15.49524620  5097"}}, "geometry": {"type": "Point", "coordinates": [-98.5590386999207, 3.517221597514879]}}, {"type": "Feature", "properties": {"norad_id": 66467, "name": "STARLINK-35682", "group": "last-30-days", "lat": 16.81197417288677, "lon": -113.6456441288173, "alt_km": 433.9417842116145, "timestamp": "2025-12-10T07:43:53.548323+00:00", "meta": {"OBJECT_NAME": "STARLINK-35682", "OBJECT_ID": "2025-262M", "EPOCH": "2025-12-09T20:00:01.999008", "MEAN_MOTION": 15.4573009, "ECCENTRICITY": 0.0001659, "INCLINATION": 43.0005, "RA_OF_ASC_NODE": 88.1077, "ARG_OF_PERICENTER": 279.9345, "MEAN_ANOMALY": 33.6645, "EPHEMERIS_TYPE": 0, "CLASSIFICATION_TYPE": "U", "NORAD_CAT_ID": 66467, "ELEMENT_SET_NO": 999, "REV_AT_EPOCH": 517, "BSTAR": -0.046871, "MEAN_MOTION_DOT": -0.02062227, "MEAN_MOTION_DDOT": 0}, "tle": {"line1": "1 66467U 25262M   25343.83335647 -.02062227  00000+0 -46871-1 0  9991", "line2": "2 66467  43.0005  88.1077 0001659 279.9345  33.6645 15.45730090  5178"}}, "geometry": {"type": "Point", "coordinates": [-113.6456441288173, 16.81197417288677]}}, {"type": "Feature", "properties": {"norad_id": 66468, "name": "STARLINK-35331", "group": "last-30-days", "lat": 0.21763343740720048, "lon": -95.02129982624066, "alt_km": 416.5050844671614, "timestamp": "2025-12-10T07:43:53.548333+00:00", "meta": {"OBJECT_NAME": "STARLINK-35331", "OBJECT_ID": "2025-262N", "EPOCH": "2025-12-09T18:35:23.866656", "MEAN_MOTION": 15.50297909, "ECCENTRICITY": 0.000105, "INCLINATION": 43.001, "RA_OF_ASC_NODE": 88.4141, "ARG_OF_PERICENTER": 308.1089, "MEAN_ANOMALY": 51.9676, "EPHEMERIS_TYPE": 0, "CLASSIFICATION_TYPE": "U", "NORAD_CAT_ID": 66468, "ELEMENT_SET_NO": 999, "REV_AT_EPOCH": 510, "BSTAR": -0.0022109, "MEAN_MOTION_DOT": -0.00126691, "MEAN_MOTION_DDOT": 0}, "tle": {"line1": "1 66468U 25262N   25343.77458179 -.00126691  00000+0 -22109-2 0  9994", "line2": "2 66468  43.0010  88.4141 0001050 308.1089  51.9676 15.50297909  5108"}}, "geometry": {"type": "Point", "coordinates": [-95.02129982624066, 0.21763343740720048]}}, {"type": "Feature", "properties": {"norad_id": 66469, "name": "STARLINK-35451", "group": "last-30-days", "lat": -4.447779688193186, "lon": -90.01813993593126, "alt_km": 414.9001985911109, "timestamp": "2025-12-10T07:43:53.548343+00:00", "meta": {"OBJECT_NAME": "STARLINK-35451", "OBJECT_ID": "2025-262P", "EPOCH": "2025-12-09T18:33:51.234624", "MEAN_MOTION": 15.5061157, "ECCENTRICITY": 0.0001521, "INCLINATION": 43.0007, "RA_OF_ASC_NODE": 88.404, "ARG_OF_PERICENTER": 271.2414, "MEAN_ANOMALY": 88.8272, "EPHEMERIS_TYPE": 0, "CLASSIFICATION_TYPE": "U", "NORAD_CAT_ID": 66469, "ELEMENT_SET_NO": 999, "REV_AT_EPOCH": 510, "BSTAR": 0.001822, "MEAN_MOTION_DOT": 0.00108163, "MEAN_MOTION_DDOT": 0}, "tle": {"line1": "1 66469U 25262P   25343.77350966  .00108163  00000+0  18220-2 0  9991", "line2": "2 66469  43.0007  88.4040 0001521 271.2414  88.8272 15.50611570  5103"}}, "geometry": {"type": "Point", "coordinates": [-90.01813993593126, -4.447779688193186]}}, {"type": "Feature", "properties": {"norad_id": 66470, "name": "STARLINK-35655", "group": "last-30-days", "lat": -1.864930138049443, "lon": -92.79346443209897, "alt_km": 414.53072754338245, "timestamp": "2025-12-10T07:43:53.548354+00:00", "meta": {"OBJECT_NAME": "STARLINK-35655", "OBJECT_ID": "2025-262Q", "EPOCH": "2025-12-09T18:34:50.587104", "MEAN_MOTION": 15.50615897, "ECCENTRICITY": 0.0001461, "INCLINATION": 43.0002, "RA_OF_ASC_NODE": 88.4105, "ARG_OF_PERICENTER": 271.1122, "MEAN_ANOMALY": 88.9571, "EPHEMERIS_TYPE": 0, "CLASSIFICATION_TYPE": "U", "NORAD_CAT_ID": 66470, "ELEMENT_SET_NO": 999, "REV_AT_EPOCH": 510, "BSTAR": 0.0023527, "MEAN_MOTION_DOT": 0.00140366, "MEAN_MOTION_DDOT": 0}, "tle": {"line1": "1 66470U 25262Q   25343.77419661  .00140366  00000+0  23527-2 0  9998", "line2": "2 66470  43.0002  88.4105 0001461 271.1122  88.9571 15.50615897  5109"}}, "geometry": {"type": "Point", "coordinates": [-92.79346443209897, -1.864930138049443]}}, {"type": "Feature", "properties": {"norad_id": 66471, "name": "STARLINK-35569", "group": "last-30-days", "lat": -3.167196093410389, "lon": -91.39671723446074, "alt_km": 414.7648595989758, "timestamp": "2025-12-10T07:43:53.548364+00:00", "meta": {"OBJECT_NAME": "STARLINK-35569", "OBJECT_ID": "2025-262R", "EPOCH": "2025-12-09T18:34:20.972640", "MEAN_MOTION": 15.50616852, "ECCENTRICITY": 0.0001386, "INCLINATION": 43.0004, "RA_OF_ASC_NODE": 88.4074, "ARG_OF_PERICENTER": 276.4784, "MEAN_ANOMALY": 83.5918, "EPHEMERIS_TYPE": 0, "CLASSIFICATION_TYPE": "U", "NORAD_CAT_ID": 66471, "ELEMENT_SET_NO": 999, "REV_AT_EPOCH": 510, "BSTAR": 0.0022405, "MEAN_MOTION_DOT": 0.0013354, "MEAN_MOTION_DDOT": 0}, "tle": {"line1": "1 66471U 25262R   25343.77385385  .00133540  00000+0  22405-2 0  9994", "line2": "2 66471  43.0004  88.4074 0001386 276.4784  83.5918 15.50616852  5103"}}, "geometry": {"type": "Point", "coordinates": [-91.39671723446074, -3.167196093410389]}}, {"type": "Feature", "properties": {"norad_id": 66472, "name": "STARLINK-35567", "group": "last-30-days", "lat": -5.808544193147442, "lon": -88.54363508555066, "alt_km": 414.88041201222313, "timestamp": "2025-12-10T07:43:53.548376+00:00", "meta": {"OBJECT_NAME": "STARLINK-35567", "OBJECT_ID": "2025-262S", "EPOCH": "2025-12-09T18:33:21.417120", "MEAN_MOTION": 15.50631754, "ECCENTRICITY": 0.0001643, "INCLINATION": 43, "RA_OF_ASC_NODE": 88.4016, "ARG_OF_PERICENTER": 273.031, "MEAN_ANOMALY": 87.0362, "EPHEMERIS_TYPE": 0, "CLASSIFICATION_TYPE": "U", "NORAD_CAT_ID": 66472, "ELEMENT_SET_NO": 999, "REV_AT_EPOCH": 510, "BSTAR": 0.0024348, "MEAN_MOTION_DOT": 0.00145454, "MEAN_MOTION_DDOT": 0}, "tle": {"line1": "1 66472U 25262S   25343.77316455  .00145454  00000+0  24348-2 0  9992", "line2": "2 66472  43.0000  88.4016 0001643 273.0310  87.0362 15.50631754  5100"}}, "geometry": {"type": "Point", "coordinates": [-88.54363508555066, -5.808544193147442]}}, {"type": "Feature", "properties": {"norad_id": 66473, "name": "STARLINK-35568", "group": "last-30-days", "lat": -7.092401680112676, "lon": -87.14240999325816, "alt_km": 414.97365214533875, "timestamp": "2025-12-10T07:43:53.548387+00:00", "meta": {"OBJECT_NAME": "STARLINK-35568", "OBJECT_ID": "2025-262T", "EPOCH": "2025-12-09T18:32:51.863136", "MEAN_MOTION": 15.50626497, "ECCENTRICITY": 0.0001547, "INCLINATION": 43.0003, "RA_OF_ASC_NODE": 88.399, "ARG_OF_PERICENTER": 269.7405, "MEAN_ANOMALY": 90.3278, "EPHEMERIS_TYPE": 0, "CLASSIFICATION_TYPE": "U", "NORAD_CAT_ID": 66473, "ELEMENT_SET_NO": 999, "REV_AT_EPOCH": 510, "BSTAR": 0.0023372, "MEAN_MOTION_DOT": 0.00139474, "MEAN_MOTION_DDOT": 0}, "tle": {"line1": "1 66473U 25262T   25343.77282249  .00139474  00000+0  23372-2 0  9997", "line2": "2 66473  43.0003  88.3990 0001547 269.7405  90.3278 15.50626497  5105"}}, "geometry": {"type": "Point", "coordinates": [-87.14240999325816, -7.092401680112676]}}, {"type": "Feature", "properties": {"norad_id": 66474, "name": "STARLINK-35620", "group": "last-30-days", "lat": -8.357259028064883, "lon": -85.75027820905493, "alt_km": 415.0790708057748, "timestamp": "2025-12-10T07:43:53.548397+00:00", "meta": {"OBJECT_NAME": "STARLINK-35620", "OBJECT_ID": "2025-262U", "EPOCH": "2025-12-09T18:32:22.335072", "MEAN_MOTION": 15.50612427, "ECCENTRICITY": 0.0001343, "INCLINATION": 43.0002, "RA_OF_ASC_NODE": 88.3957, "ARG_OF_PERICENTER": 262.982, "MEAN_ANOMALY": 97.0887, "EPHEMERIS_TYPE": 0, "CLASSIFICATION_TYPE": "U", "NORAD_CAT_ID": 66474, "ELEMENT_SET_NO": 999, "REV_AT_EPOCH": 510, "BSTAR": 0.0021552, "MEAN_MOTION_DOT": 0.0012834, "MEAN_MOTION_DDOT": 0}, "tle": {"line1": "1 66474U 25262U   25343.77248073  .00128340  00000+0  21552-2 0  9993", "line2": "2 66474  43.0002  88.3957 0001343 262.9820  97.0887 15.50612427  5106"}}, "geometry": {"type": "Point", "coordinates": [-85.75027820905493, -8.357259028064883]}}]}